JINJUSAT-1B             
1 63210U 25052A   26068.66363707  .00019955  00000+0  68430-3 0  9998
2 63210  97.4113 325.4613 0005550  82.1930 277.9941 15.30194857 54866
STARLINK-35821          
1 66372U 25254AA  26068.72385447  .00033273  00000+0  11301-2 0  9999
2 66372  53.1584 229.9257 0001061  51.4783 308.6312 15.30210868 19012
