[{"OBJECT_NAME":"JINJUSAT-1B","OBJECT_ID":"2025-052A","EPOCH":"2026-03-09T15:55:38.242848","MEAN_MOTION":15.30194857,"ECCENTRICITY":0.00055504,"INCLINATION":97.4113,"RA_OF_ASC_NODE":325.4613,"ARG_OF_PERICENTER":82.193,"MEAN_ANOMALY":277.9941,"EPHEMERIS_TYPE":0,"CLASSIFICATION_TYPE":"U","NORAD_CAT_ID":63210,"ELEMENT_SET_NO":999,"REV_AT_EPOCH":5486,"BSTAR":0.00068430401,"MEAN_MOTION_DOT":0.00019955,"MEAN_MOTION_DDOT":0},{"OBJECT_NAME":"STARLINK-35821","OBJECT_ID":"2025-254AA","EPOCH":"2026-03-09T17:22:21.026208","MEAN_MOTION":15.30210868,"ECCENTRICITY":0.00010619,"INCLINATION":53.1584,"RA_OF_ASC_NODE":229.9257,"ARG_OF_PERICENTER":51.4783,"MEAN_ANOMALY":308.6312,"EPHEMERIS_TYPE":0,"CLASSIFICATION_TYPE":"U","NORAD_CAT_ID":66372,"ELEMENT_SET_NO":999,"REV_AT_EPOCH":1901,"BSTAR":0.0011301277,"MEAN_MOTION_DOT":0.00033273,"MEAN_MOTION_DDOT":0}]
